     2.11           N: GPS NAV DATA                         RINEX VERSION / TYPE
teqc  2018Dec12     gpsops              20220314 01:04:07UTCPGM / RUN BY / DATE
Linux 2.6.32-573.12.1.x86_64|x86_64|gcc -static|Linux 64|=+ COMMENT
CHPI                                    MARKER NAME         COMMENT
41609M003                               MARKER NUMBER       COMMENT
4164613.9484 -4162456.9866 -2445028.7316                    COMMENT
                                                            COMMENT
This data is provided as a public service by NASA/JPL.      COMMENT
No warranty is expressed or implied regarding suitability   COMMENT
for use.  For further information, contact:                 COMMENT
Dave Stowers, NASA/JPL m/s 238-600                          COMMENT
4800 Oak Grove Drive, Pasadena CA 91109 USA                 COMMENT
                                                            END OF HEADER
27 22  3 13  0  0  0.0 1.519005745649D-04 1.284661266254D-11 0.000000000000D+00
    1.700000000000D+01 6.615625000000D+01 4.183388540639D-09-2.151880634603D+00
    3.241002559662D-06 1.037353440188D-02 7.238239049911D-06 5.153653680801D+03
    0.000000000000D+00 1.266598701477D-07 2.812782514996D+00-1.005828380585D-07
    9.733775906608D-01 2.462187500000D+02 6.500301022829D-01-7.783181343601D-09
    1.335769925893D-10 1.000000000000D+00 2.201000000000D+03 0.000000000000D+00
    2.000000000000D+00 0.000000000000D+00 1.396983861923D-09 1.700000000000D+01
   -7.182000000000D+03 4.000000000000D+00
28 22  3 13  0  0  0.0 3.818054683506D-04-8.299139153678D-12 0.000000000000D+00
    5.900000000000D+01 3.287500000000D+01 4.281249759808D-09-1.709627983976D+00
    2.034008502960D-06 1.671421655919D-02 8.491799235344D-06 5.153694501877D+03
    0.000000000000D+00-1.825392246246D-07 1.859938859428D+00 3.967434167862D-07
    9.688382904493D-01 2.221562500000D+02-1.285096090142D+00-7.819611432489D-09
   -3.364425856127D-10 1.000000000000D+00 2.201000000000D+03 0.000000000000D+00
    4.000000000000D+00 6.300000000000D+01-1.117587089539D-08 5.900000000000D+01
   -6.948000000000D+03 4.000000000000D+00
30 22  3 13  0  0  0.0-5.183648318052D-04-2.046363078989D-12 0.000000000000D+00
    9.200000000000D+01 2.565625000000D+01 5.246289957606D-09 1.292648422281D+00
    1.413747668266D-06 5.618926719762D-03 6.420537829399D-06 5.153562623978D+03
    0.000000000000D+00-7.823109626770D-08 7.374117630170D-01 5.960464477539D-08
    9.361531368901D-01 2.432500000000D+02-2.730503427673D+00-8.324989626377D-09
    2.892977646988D-11 1.000000000000D+00 2.201000000000D+03 0.000000000000D+00
    2.000000000000D+00 0.000000000000D+00 3.725290298462D-09 9.200000000000D+01
   -7.182000000000D+03 4.000000000000D+00
14 22  3 13  2  0  0.0-9.326776489615D-05-3.751665644813D-12 0.000000000000D+00
    2.250000000000D+02 2.253125000000D+01 4.696624204679D-09 1.717770426548D+00
    1.072883605957D-06 1.553999492899D-03 7.526949048042D-06 5.153651145935D+03
    7.200000000000D+03 3.352761268616D-08 1.806096141965D+00 9.313225746155D-09
    9.531444783391D-01 2.298125000000D+02 3.018037869551D+00-8.050692486514D-09
   -3.110843864848D-10 1.000000000000D+00 2.201000000000D+03 0.000000000000D+00
    2.000000000000D+00 0.000000000000D+00-7.450580596924D-09 4.810000000000D+02
    1.800000000000D+01 4.000000000000D+00
28 22  3 13  2  0  0.0 3.817453980446D-04-8.299139153678D-12 0.000000000000D+00
    6.000000000000D+01 2.443750000000D+01 4.381968240852D-09-6.595011041482D-01
    1.192092895508D-06 1.671337115113D-02 8.393079042435D-06 5.153692714691D+03
    7.200000000000D+03-2.328306436539D-07 1.859879912607D+00-2.235174179077D-08
    9.688352183214D-01 2.281562500000D+02-1.285055539516D+00-8.149982336620D-09
   -1.842933908452D-10 1.000000000000D+00 2.201000000000D+03 0.000000000000D+00
    4.000000000000D+00 6.300000000000D+01-1.117587089539D-08 6.000000000000D+01
    1.800000000000D+01 4.000000000000D+00
30 22  3 13  2  0  0.0-5.183797329664D-04-2.046363078989D-12 0.000000000000D+00
    9.400000000000D+01 2.250000000000D+01 5.230575017302D-09 2.342810675468D+00
    1.138076186180D-06 5.618881783448D-03 6.543472409248D-06 5.153563587189D+03
    7.200000000000D+03-1.005828380585D-07 7.373517043781D-01-2.048909664154D-08
    9.361535406555D-01 2.411875000000D+02-2.730411930925D+00-8.276416174526D-09
    5.464513333200D-11 1.000000000000D+00 2.201000000000D+03 0.000000000000D+00
    2.000000000000D+00 0.000000000000D+00 3.725290298462D-09 9.400000000000D+01
    1.800000000000D+01 4.000000000000D+00
 7 22  3 13  2  0  0.0 3.156922757626D-04 2.046363078989D-12 0.000000000000D+00
    5.800000000000D+01 2.025000000000D+01 4.819486465242D-09 2.292253797823D+00
    8.568167686462D-07 1.568174455315D-02 6.761401891708D-06 5.153679239273D+03
    7.200000000000D+03-1.098960638046D-07 7.246100053610D-01-3.036111593246D-07
    9.510028642865D-01 2.439062500000D+02-2.285915153724D+00-7.960688737497D-09
    1.042900583853D-10 1.000000000000D+00 2.201000000000D+03 0.000000000000D+00
    2.000000000000D+00 0.000000000000D+00-1.117587089539D-08 5.800000000000D+01
    1.800000000000D+01 4.000000000000D+00
 9 22  3 13  2  0  0.0-3.500608727336D-04 2.046363078989D-12 0.000000000000D+00
    7.800000000000D+01-2.668750000000D+01 4.509116394226D-09-6.799219395808D-01
   -1.469627022743D-06 2.182203345001D-03 9.829178452492D-06 5.153608215332D+03
    7.200000000000D+03-8.195638656616D-08-3.468696838061D-01 5.029141902924D-08
    9.545544051368D-01 1.867187500000D+02 1.875591854661D+00-7.918186967127D-09
    2.267951612145D-10 1.000000000000D+00 2.201000000000D+03 0.000000000000D+00
    2.000000000000D+00 0.000000000000D+00 1.396983861923D-09 7.800000000000D+01
    1.800000000000D+01 4.000000000000D+00
17 22  3 13  2  0  0.0 5.864696577191D-04 4.888534022029D-12 0.000000000000D+00
    8.600000000000D+01 8.131250000000D+01 4.065526488354D-09-1.164868602093D+00
    4.427507519722D-06 1.353077811655D-02 7.636845111847D-06 5.153778442383D+03
    7.200000000000D+03-2.086162567139D-07 2.875342909048D+00 2.086162567139D-07
    9.798371551791D-01 2.493125000000D+02-1.493906841799D+00-7.971760627257D-09
    1.035757429169D-10 1.000000000000D+00 2.201000000000D+03 0.000000000000D+00
    2.000000000000D+00 0.000000000000D+00-1.117587089539D-08 8.600000000000D+01
    1.800000000000D+01 4.000000000000D+00
20 22  3 13  2  0  0.0 5.163252353668D-04-1.136868377216D-13 0.000000000000D+00
    7.700000000000D+01-1.065625000000D+02 5.031281001620D-09-2.330433345457D+00
   -5.403533577919D-06 5.053135217167D-03 5.004927515984D-06 5.153770721436D+03
    7.200000000000D+03-8.568167686462D-08-1.530424273114D+00-1.266598701477D-07
    9.418137799014D-01 2.685625000000D+02-3.132639394525D+00-8.395349700013D-09
   -1.725071856167D-10 1.000000000000D+00 2.201000000000D+03 0.000000000000D+00
    2.000000000000D+00 0.000000000000D+00-8.381903171539D-09 7.700000000000D+01
    1.800000000000D+01 4.000000000000D+00
 5 22  3 13  2  0  0.0-7.447134703398D-05-1.364242052659D-12 0.000000000000D+00
    6.200000000000D+01-1.044375000000D+02 4.598762985509D-09-6.576553287042D-01
   -5.379319190979D-06 5.880256067030D-03 6.008893251419D-06 5.153684347153D+03
    7.200000000000D+03-3.911554813385D-08-1.415879537157D+00 1.061707735062D-07
    9.595963259644D-01 2.606875000000D+02 1.006358650123D+00-8.234985877359D-09
   -2.050085394286D-10 1.000000000000D+00 2.201000000000D+03 0.000000000000D+00
    2.000000000000D+00 0.000000000000D+00-1.117587089539D-08 6.200000000000D+01
    1.800000000000D+01 4.000000000000D+00
13 22  3 13  2  0  0.0 2.759196795523D-04 6.366462912410D-12 0.000000000000D+00
    4.100000000000D+01-1.856250000000D+01 4.144458347611D-09-1.607942085813D+00
   -9.741634130478D-07 5.819199839607D-03 9.737908840179D-06 5.153673883438D+03
    7.200000000000D+03 1.750886440277D-07-1.936716473615D-01-2.048909664154D-08
    9.690299224773D-01 1.970312500000D+02 9.458029995084D-01-7.631032148834D-09
    2.210806374674D-10 1.000000000000D+00 2.201000000000D+03 0.000000000000D+00
    2.000000000000D+00 0.000000000000D+00-1.117587089539D-08 4.100000000000D+01
    1.800000000000D+01 4.000000000000D+00
 8 22  3 13  2  0  0.0-5.962420254946D-05-1.477928890381D-12 0.000000000000D+00
    1.260000000000D+02 6.118750000000D+01 4.310893851747D-09-1.082904919908D+00
    3.065913915634D-06 7.380901137367D-03 7.374212145805D-06 5.153734928131D+03
    7.200000000000D+03 6.705522537231D-08 2.793096484297D+00-1.098960638046D-07
    9.646565917848D-01 2.358125000000D+02 1.262709416116D-01-7.968903365383D-09
    9.678974596714D-11 1.000000000000D+00 2.201000000000D+03 0.000000000000D+00
    2.000000000000D+00 0.000000000000D+00 5.122274160385D-09 1.260000000000D+02
    1.800000000000D+01 4.000000000000D+00
19 22  3 13  2  0  0.0 1.302645541728D-04 5.002220859751D-12 0.000000000000D+00
    7.600000000000D+01 7.465625000000D+01 4.076598378114D-09 1.255296478126D+00
    3.749504685402D-06 9.031364927068D-03 7.012858986855D-06 5.153694246292D+03
    7.200000000000D+03 1.210719347000D-07 2.920175462858D+00-2.048909664154D-07
    9.786253396735D-01 2.536875000000D+02 2.019082184706D+00-7.862827518327D-09
    1.096474243982D-10 1.000000000000D+00 2.201000000000D+03 0.000000000000D+00
    2.000000000000D+00 0.000000000000D+00-1.583248376846D-08 7.600000000000D+01
    6.600000000000D+01 4.000000000000D+00
 4 22  3 13  2  0  0.0-1.840274780989D-04 2.614797267597D-12 0.000000000000D+00
    1.870000000000D+02-2.146875000000D+01 4.297679015581D-09-1.565510559467D+00
   -1.216307282448D-06 1.733903889544D-03 9.765848517418D-06 5.153644489288D+03
    7.200000000000D+03-9.872019290924D-08-2.937252346979D-01-4.284083843231D-08
    9.615685282517D-01 1.918437500000D+02-3.023870974512D+00-7.752108620726D-09
    2.192948487964D-10 1.000000000000D+00 2.201000000000D+03 0.000000000000D+00
    2.000000000000D+00 0.000000000000D+00-4.190951585770D-09 9.550000000000D+02
    1.080000000000D+02 4.000000000000D+00
